start=new Date('2023-02-23T00:00:00.000Z').valueOf();
sats=[{"NORAD_CAT_ID":"48662","REV_AT_EPOCH":"9640","EPHEMERIS_TYPE":"0","REF_FRAME":"TEME","LAUNCH_DATE":"2021-05-26","MEAN_MOTION":"15.06398969","CLASSIFICATION_TYPE":"U","GP_ID":"226473664","SEMIMAJOR_AXIS":"6925.352","CENTER_NAME":"EARTH","OBJECT_NAME":"STARLINK-2726","PERIOD":"95.592","INCLINATION":"53.0529","TLE_LINE1":"1 48662U 21044AA  23053.73844398  .00015920  00000-0  10853-2 0  9992","ARG_OF_PERICENTER":"91.0398","DECAY_DATE":null,"MEAN_ELEMENT_THEORY":"SGP4","OBJECT_ID":"2021-044AA","MEAN_MOTION_DDOT":"0.0000000000000","RCS_SIZE":"LARGE","SITE":"AFETR","MEAN_MOTION_DOT":"0.00015920","ELEMENT_SET_NO":"999","MEAN_ANOMALY":"269.0774","PERIAPSIS":"546.111","EPOCH":"2023-02-22T17:43:21.559872","TLE_LINE2":"2 48662  53.0529  58.8775 0001596  91.0398 269.0774 15.06398969 96403","TIME_SYSTEM":"UTC","APOAPSIS":"548.322","OBJECT_TYPE":"PAYLOAD","COUNTRY_CODE":"US","FILE":"3825529","BSTAR":"0.00108530000000","RA_OF_ASC_NODE":"58.8775","ECCENTRICITY":"0.00015960"},{"FILE":"3825529","APOAPSIS":"548.422","OBJECT_TYPE":"PAYLOAD","COUNTRY_CODE":"US","ECCENTRICITY":"0.00017500","BSTAR":"0.00013569000000","RA_OF_ASC_NODE":"58.8958","MEAN_ANOMALY":"276.2006","PERIAPSIS":"545.998","RCS_SIZE":"LARGE","SITE":"AFETR","MEAN_MOTION_DOT":"0.00001740","ELEMENT_SET_NO":"999","TIME_SYSTEM":"UTC","EPOCH":"2023-02-22T17:38:02.816448","TLE_LINE2":"2 48663  53.0549  58.8958 0001750  83.9182 276.2006 15.06401210 96404","TLE_LINE1":"1 48663U 21044AB  23053.73475482  .00001740  00000-0  13569-3 0  9990","ARG_OF_PERICENTER":"83.9182","INCLINATION":"53.0549","MEAN_ELEMENT_THEORY":"SGP4","OBJECT_ID":"2021-044AB","MEAN_MOTION_DDOT":"0.0000000000000","DECAY_DATE":null,"REF_FRAME":"TEME","LAUNCH_DATE":"2021-05-26","REV_AT_EPOCH":"9640","NORAD_CAT_ID":"48663","EPHEMERIS_TYPE":"0","CENTER_NAME":"EARTH","PERIOD":"95.592","OBJECT_NAME":"STARLINK-2667","MEAN_MOTION":"15.06401210","GP_ID":"226472438","CLASSIFICATION_TYPE":"U","SEMIMAJOR_AXIS":"6925.345"},{"SEMIMAJOR_AXIS":"6925.363","CLASSIFICATION_TYPE":"U","GP_ID":"226472688","MEAN_MOTION":"15.06395191","PERIOD":"95.592","OBJECT_NAME":"STARLINK-2709","CENTER_NAME":"EARTH","EPHEMERIS_TYPE":"0","REV_AT_EPOCH":"9640","NORAD_CAT_ID":"48664","REF_FRAME":"TEME","LAUNCH_DATE":"2021-05-26","DECAY_DATE":null,"MEAN_MOTION_DDOT":"0.0000000000000","OBJECT_ID":"2021-044AC","MEAN_ELEMENT_THEORY":"SGP4","INCLINATION":"53.0528","TLE_LINE1":"1 48664U 21044AC  23053.73107219  .00020121  00000-0  13660-2 0  9996","ARG_OF_PERICENTER":"77.0744","TLE_LINE2":"2 48664  53.0528  58.9117 0001327  77.0744 283.0393 15.06395191 96403","EPOCH":"2023-02-22T17:32:44.637216","TIME_SYSTEM":"UTC","ELEMENT_SET_NO":"999","MEAN_MOTION_DOT":"0.00020121","SITE":"AFETR","RCS_SIZE":"LARGE","PERIAPSIS":"546.309","MEAN_ANOMALY":"283.0393","RA_OF_ASC_NODE":"58.9117","BSTAR":"0.00136600000000","ECCENTRICITY":"0.00013270","OBJECT_TYPE":"PAYLOAD","COUNTRY_CODE":"US","APOAPSIS":"548.147","FILE":"3825529"},{"DECAY_DATE":null,"MEAN_MOTION_DDOT":"0.0000000000000","OBJECT_ID":"2021-044AD","MEAN_ELEMENT_THEORY":"SGP4","INCLINATION":"53.0547","TLE_LINE1":"1 48665U 21044AD  23053.74487755  .00021035  00000-0  14270-2 0  9997","ARG_OF_PERICENTER":"81.4376","SEMIMAJOR_AXIS":"6925.363","GP_ID":"226472939","CLASSIFICATION_TYPE":"U","MEAN_MOTION":"15.06395307","OBJECT_NAME":"STARLINK-2653","PERIOD":"95.592","CENTER_NAME":"EARTH","EPHEMERIS_TYPE":"0","REV_AT_EPOCH":"9640","NORAD_CAT_ID":"48665","REF_FRAME":"TEME","LAUNCH_DATE":"2021-05-26","RA_OF_ASC_NODE":"58.8432","BSTAR":"0.00142700000000","ECCENTRICITY":"0.00019060","OBJECT_TYPE":"PAYLOAD","COUNTRY_CODE":"US","APOAPSIS":"548.548","FILE":"3825529","TLE_LINE2":"2 48665  53.0547  58.8432 0001906  81.4376 278.6828 15.06395307 96409","EPOCH":"2023-02-22T17:52:37.420320","TIME_SYSTEM":"UTC","ELEMENT_SET_NO":"999","SITE":"AFETR","RCS_SIZE":"LARGE","MEAN_MOTION_DOT":"0.00021035","PERIAPSIS":"545.908","MEAN_ANOMALY":"278.6828"},{"INCLINATION":"53.0521","ARG_OF_PERICENTER":"67.3391","TLE_LINE1":"1 48666U 21044AE  23053.49152051  .00020549  00000-0  13959-2 0  9990","DECAY_DATE":null,"MEAN_MOTION_DDOT":"0.0000000000000","OBJECT_ID":"2021-044AE","MEAN_ELEMENT_THEORY":"SGP4","EPHEMERIS_TYPE":"0","NORAD_CAT_ID":"48666","REV_AT_EPOCH":"9635","REF_FRAME":"TEME","LAUNCH_DATE":"2021-05-26","SEMIMAJOR_AXIS":"6925.473","GP_ID":"226421179","CLASSIFICATION_TYPE":"U","MEAN_MOTION":"15.06359458","PERIOD":"95.595","OBJECT_NAME":"STARLINK-2666","CENTER_NAME":"EARTH","OBJECT_TYPE":"PAYLOAD","COUNTRY_CODE":"US","APOAPSIS":"548.510","FILE":"3824148","RA_OF_ASC_NODE":"60.4601","BSTAR":"0.00139590000000","ECCENTRICITY":"0.00016930","ELEMENT_SET_NO":"999","RCS_SIZE":"LARGE","SITE":"AFETR","MEAN_MOTION_DOT":"0.00020549","PERIAPSIS":"546.165","MEAN_ANOMALY":"292.7777","TLE_LINE2":"2 48666  53.0521  60.4601 0001693  67.3391 292.7777 15.06359458 96353","EPOCH":"2023-02-22T11:47:47.372064","TIME_SYSTEM":"UTC"},{"NORAD_CAT_ID":"48667","REV_AT_EPOCH":"9640","EPHEMERIS_TYPE":"0","REF_FRAME":"TEME","LAUNCH_DATE":"2021-05-26","MEAN_MOTION":"15.06400776","SEMIMAJOR_AXIS":"6925.346","GP_ID":"226471938","CLASSIFICATION_TYPE":"U","OBJECT_NAME":"STARLINK-2735","PERIOD":"95.592","CENTER_NAME":"EARTH","INCLINATION":"53.0530","TLE_LINE1":"1 48667U 21044AF  23053.72738621  .00016984  00000-0  11563-2 0  9997","ARG_OF_PERICENTER":"104.7516","DECAY_DATE":null,"OBJECT_ID":"2021-044AF","MEAN_ELEMENT_THEORY":"SGP4","MEAN_MOTION_DDOT":"0.0000000000000","RCS_SIZE":"LARGE","SITE":"AFETR","MEAN_MOTION_DOT":"0.00016984","ELEMENT_SET_NO":"999","MEAN_ANOMALY":"255.3583","PERIAPSIS":"546.523","EPOCH":"2023-02-22T17:27:26.168544","TLE_LINE2":"2 48667  53.0530  58.9266 0000993 104.7516 255.3583 15.06400776 96406","TIME_SYSTEM":"UTC","COUNTRY_CODE":"US","OBJECT_TYPE":"PAYLOAD","APOAPSIS":"547.899","FILE":"3825529","RA_OF_ASC_NODE":"58.9266","BSTAR":"0.00115630000000","ECCENTRICITY":"0.00009930"},{"REV_AT_EPOCH":"9640","NORAD_CAT_ID":"48668","EPHEMERIS_TYPE":"0","LAUNCH_DATE":"2021-05-26","REF_FRAME":"TEME","MEAN_MOTION":"15.06400591","SEMIMAJOR_AXIS":"6925.347","CLASSIFICATION_TYPE":"U","GP_ID":"226472188","PERIOD":"95.592","OBJECT_NAME":"STARLINK-2738","CENTER_NAME":"EARTH","INCLINATION":"53.0537","TLE_LINE1":"1 48668U 21044AG  23053.72370067  .00013265  00000-0  90772-3 0  9993","ARG_OF_PERICENTER":"108.3438","DECAY_DATE":null,"OBJECT_ID":"2021-044AG","MEAN_ELEMENT_THEORY":"SGP4","MEAN_MOTION_DDOT":"0.0000000000000","RCS_SIZE":"LARGE","SITE":"AFETR","MEAN_MOTION_DOT":"0.00013265","ELEMENT_SET_NO":"999","MEAN_ANOMALY":"251.7682","PERIAPSIS":"546.372","EPOCH":"2023-02-22T17:22:07.737888","TLE_LINE2":"2 48668  53.0537  58.9375 0001213 108.3438 251.7682 15.06400591 96409","TIME_SYSTEM":"UTC","COUNTRY_CODE":"US","OBJECT_TYPE":"PAYLOAD","APOAPSIS":"548.052","FILE":"3825529","RA_OF_ASC_NODE":"58.9375","BSTAR":"0.00090772000000","ECCENTRICITY":"0.00012130"},{"FILE":"3825529","COUNTRY_CODE":"US","OBJECT_TYPE":"PAYLOAD","APOAPSIS":"547.939","ECCENTRICITY":"0.00010250","RA_OF_ASC_NODE":"58.9526","BSTAR":"0.00134710000000","PERIAPSIS":"546.519","MEAN_ANOMALY":"282.6257","ELEMENT_SET_NO":"999","SITE":"AFETR","RCS_SIZE":"LARGE","MEAN_MOTION_DOT":"0.00019838","TIME_SYSTEM":"UTC","TLE_LINE2":"2 48669  53.0547  58.9526 0001025  77.4846 282.6257 15.06395031 96390","EPOCH":"2023-02-22T17:16:49.674432","ARG_OF_PERICENTER":"77.4846","TLE_LINE1":"1 48669U 21044AH  23053.72001938  .00019838  00000-0  13471-2 0  9994","INCLINATION":"53.0547","MEAN_MOTION_DDOT":"0.0000000000000","OBJECT_ID":"2021-044AH","MEAN_ELEMENT_THEORY":"SGP4","DECAY_DATE":null,"LAUNCH_DATE":"2021-05-26","REF_FRAME":"TEME","EPHEMERIS_TYPE":"0","REV_AT_EPOCH":"9639","NORAD_CAT_ID":"48669","PERIOD":"95.592","OBJECT_NAME":"STARLINK-2707","CENTER_NAME":"EARTH","SEMIMAJOR_AXIS":"6925.364","GP_ID":"226473440","CLASSIFICATION_TYPE":"U","MEAN_MOTION":"15.06395031"},{"DECAY_DATE":null,"MEAN_ELEMENT_THEORY":"SGP4","OBJECT_ID":"2021-044AJ","MEAN_MOTION_DDOT":"0.0000000000000","INCLINATION":"53.0549","ARG_OF_PERICENTER":"116.1316","TLE_LINE1":"1 48670U 21044AJ  23053.71632793  .00019288  00000-0  13101-2 0  9993","MEAN_MOTION":"15.06402793","CLASSIFICATION_TYPE":"U","GP_ID":"226473665","SEMIMAJOR_AXIS":"6925.340","CENTER_NAME":"EARTH","PERIOD":"95.592","OBJECT_NAME":"STARLINK-2763","NORAD_CAT_ID":"48670","REV_AT_EPOCH":"9639","EPHEMERIS_TYPE":"0","REF_FRAME":"TEME","LAUNCH_DATE":"2021-05-26","BSTAR":"0.00131010000000","RA_OF_ASC_NODE":"58.9711","ECCENTRICITY":"0.00013470","APOAPSIS":"548.138","OBJECT_TYPE":"PAYLOAD","COUNTRY_CODE":"US","FILE":"3825529","EPOCH":"2023-02-22T17:11:30.733152","TLE_LINE2":"2 48670  53.0549  58.9711 0001347 116.1316 243.9811 15.06402793 96390","TIME_SYSTEM":"UTC","RCS_SIZE":"LARGE","SITE":"AFETR","MEAN_MOTION_DOT":"0.00019288","ELEMENT_SET_NO":"999","MEAN_ANOMALY":"243.9811","PERIAPSIS":"546.272"},{"TIME_SYSTEM":"UTC","TLE_LINE2":"2 48671  53.0532  58.9945 0001536 115.7204 244.3944 15.06400688 96396","EPOCH":"2023-02-22T17:06:11.899008","PERIAPSIS":"546.148","MEAN_ANOMALY":"244.3944","ELEMENT_SET_NO":"999","SITE":"AFETR","MEAN_MOTION_DOT":"0.00019688","RCS_SIZE":"LARGE","ECCENTRICITY":"0.00015360","BSTAR":"0.00133690000000","RA_OF_ASC_NODE":"58.9945","FILE":"3825529","APOAPSIS":"548.275","COUNTRY_CODE":"US","OBJECT_TYPE":"PAYLOAD","CENTER_NAME":"EARTH","OBJECT_NAME":"STARLINK-2745","PERIOD":"95.592","CLASSIFICATION_TYPE":"U","GP_ID":"226472439","SEMIMAJOR_AXIS":"6925.346","MEAN_MOTION":"15.06400688","REF_FRAME":"TEME","LAUNCH_DATE":"2021-05-26","EPHEMERIS_TYPE":"0","REV_AT_EPOCH":"9639","NORAD_CAT_ID":"48671","MEAN_MOTION_DDOT":"0.0000000000000","MEAN_ELEMENT_THEORY":"SGP4","OBJECT_ID":"2021-044AK","DECAY_DATE":null,"ARG_OF_PERICENTER":"115.7204","TLE_LINE1":"1 48671U 21044AK  23053.71263772  .00019688  00000-0  13369-2 0  9991","INCLINATION":"53.0532"}];
